[{"OBJECT_NAME":"STARLINK-30215","OBJECT_ID":"2023-105R","EPOCH":"2026-03-09T22:00:01.999584","MEAN_MOTION":15.21884858,"ECCENTRICITY":0.00010316,"INCLINATION":42.9992,"RA_OF_ASC_NODE":258.6075,"ARG_OF_PERICENTER":307.4613,"MEAN_ANOMALY":139.0312,"EPHEMERIS_TYPE":0,"CLASSIFICATION_TYPE":"U","NORAD_CAT_ID":57445,"ELEMENT_SET_NO":999,"REV_AT_EPOCH":578,"BSTAR":0.0053865498,"MEAN_MOTION_DOT":0.00126903,"MEAN_MOTION_DDOT":0},{"OBJECT_NAME":"OBJECT C","OBJECT_ID":"2024-174C","EPOCH":"2026-03-07T05:41:36.519936","MEAN_MOTION":15.21181447,"ECCENTRICITY":0.0009601,"INCLINATION":97.4469,"RA_OF_ASC_NODE":75.6508,"ARG_OF_PERICENTER":198.0637,"MEAN_ANOMALY":162.0259,"EPHEMERIS_TYPE":0,"CLASSIFICATION_TYPE":"U","NORAD_CAT_ID":61240,"ELEMENT_SET_NO":999,"REV_AT_EPOCH":8020,"BSTAR":0.00020676,"MEAN_MOTION_DOT":4.544e-5,"MEAN_MOTION_DDOT":0}]
